IRIDIUM 150             
1 43257U 18030J   24294.18532601  .00001131  00000+0  39661-3 0  9993
2 43257  86.4037 183.3338 0002409  80.7556 279.3912 14.34221654343449
IRIDIUM 143             
1 43258U 18030K   24294.23606638  .00001128  00000+0  39552-3 0  9997
2 43258  86.4041 183.3813 0002663  80.4653 279.6844 14.34222652343389
IRIDIUM 161             
1 43478U 18047C   24294.53474317  .00001131  00000+0  33024-3 0  9991
2 43478  86.4512 341.1722 0002145  95.2831 264.8614 14.43276393337921
IRIDIUM 152             
1 43479U 18047D   24294.55761969  .00000986  00000+0  34511-3 0  9995
2 43479  86.3987 341.0220 0002144  94.8159 265.3282 14.34223178335823
IRIDIUM 147             
1 43480U 18047E   24294.56397878  .00000671  00000+0  23264-3 0  9996
2 43480  86.3989 341.0139 0001836  95.5208 264.6198 14.34220838335824
IRIDIUM 110             
1 43481U 18047F   24294.57031983  .00000995  00000+0  34805-3 0  9992
2 43481  86.3991 341.0873 0001831 105.8211 254.3187 14.34219224335817
IRIDIUM 162             
1 43482U 18047G   24294.52845261  .00001288  00000+0  37686-3 0  9996
2 43482  86.4511 341.0732 0001897 100.3885 259.7530 14.43290864337913
IRIDIUM 160             
1 43569U 18061A   24294.51612831 -.00000444  00000+0 -16559-3 0  9993
2 43569  86.3930 309.4806 0001890  89.0845 271.0568 14.34213132326701
